IRIDIUM 921 [-]         
1 24873U 97034E   23338.14035009  .00017122  00000+0  61423-3 0  9999
2 24873  86.3876  24.2166 0002202 271.4344  88.6652 15.28587913445429
IRIDIUM 26 [-]          
1 24903U 97043A   23338.48597260  .00000704  00000+0  23530-3 0  9997
2 24903  86.3956 345.8817 0002306  95.2388 264.9072 14.36106772376710
IRIDIUM 22 [-]          
1 24907U 97043E   23338.46086881  .00000655  00000+0  22324-3 0  9996
2 24907  86.3963 348.9731 0002122  91.0865 269.0574 14.35011548376326
DUMMY MASS 1 [-]        
1 24925U 97048A   23338.18001820  .00000681  00000+0  74816-4 0  9993
2 24925  86.3365  34.5219 0006157 354.3909   5.7245 14.85953433422030
DUMMY MASS 2 [-]        
1 24926U 97048B   23338.11758389  .00000685  00000+0  75722-4 0  9997
2 24926  86.3365  36.0589 0007456   3.2543 356.8728 14.85714250421818
IRIDIUM 29 [-]          
1 24944U 97051A   23338.17717676  .00000687  00000+0  23251-3 0  9992
2 24944  86.3975  19.0489 0001885  88.5503 271.5910 14.35468316372980
IRIDIUM 33 [-]          
1 24946U 97051C   23337.60637997  .00000491  00000+0  16827-3 0  9992
2 24946  86.3890  18.5580 0009955 106.9100 253.3188 14.34193065372247
IRIDIUM 28 [-]          
1 24948U 97051E   23338.17090590  .00000631  00000+0  20870-3 0  9998
2 24948  86.3980  16.8904 0002516  97.6973 262.4510 14.36411026373355
